{"fetched_at":"2026-03-29T02:12:04Z","count":15717,"tles":[{"name":"2024-092K","line1":"1 59809U 24092K   26087.33968000  .00023906  00000+0  73516-3 0  9994","line2":"2 59809  97.6438 217.1275 0008520  82.7840 277.4370 15.33646552102833","category":"Other"}]}