{
  "norad_id": 59809,
  "name": "2024-092K",
  "history": [
    {
      "epoch": "2026-03-28T08:09:08.352000",
      "apogee_km": 470.7743468611543,
      "perigee_km": 459.1127795501725,
      "latitude_deg": 56.112680784767164,
      "longitude_deg": -166.49072000011802,
      "semi_major_axis_km": 6843.080563205663,
      "eccentricity": 0.00085207,
      "inclination_deg": 97.6438,
      "raan_deg": 217.1275,
      "arg_perigee_deg": 82.784,
      "mean_anomaly_deg": 277.437,
      "mean_motion_rev_day": 15.33646552
    }
  ]
}